NORAD_CAT_ID,OBJECT_NAME,OBJECT_TYPE,EPOCH,MEAN_MOTION,ECCENTRICITY,INCLINATION,RA_OF_ASC_NODE,ARG_OF_PERICENTER,MEAN_ANOMALY,BSTAR,MEAN_MOTION_DOT,MEAN_MOTION_DDOT,TLE_LINE0,TLE_LINE1,TLE_LINE2,SEMIMAJOR_AXIS,PERIOD,APOGEE,PERIGEE,DECAYED
53840.0,STARLINK-4766,PAYLOAD,2023-03-11 10:07:24,15.08825186,0.0001368,53.2188,166.5312,108.7764,251.3377,0.00088235,0.00013777,0.0,0 STARLINK-4766,1 53840U 22114Y   23070.42180828  .00013777  00000-0  88235-3 0  9999,2 53840  53.2188 166.5312 0001368 108.7764 251.3377 15.08825186 27779,6917.926,95.438,540.737,538.844,0.0
53840.0,STARLINK-4766,PAYLOAD,2023-03-11 13:18:10,15.08827001,0.0001424,53.218,165.9364,109.7873,250.3273,0.0016151,0.00025501,0.0,0 STARLINK-4766,1 53840U 22114Y   23070.55429074  .00025501  00000-0  16151-2 0  9997,2 53840  53.2180 165.9364 0001424 109.7873 250.3273 15.08827001 27790,6917.92,95.438,540.77,538.8,0.0
53840.0,STARLINK-4766,PAYLOAD,2023-03-12 06:47:25,15.08831759,0.0001815,53.2181,162.6662,114.3933,245.7249,0.00077094,0.00012,0.0,0 STARLINK-4766,1 53840U 22114Y   23071.28293958  .00012000  00000-0  77094-3 0  9992,2 53840  53.2181 162.6662 0001815 114.3933 245.7249 15.08831759 27368,6917.906,95.438,541.026,538.515,0.0
53840.0,STARLINK-4766,PAYLOAD,2023-03-12 14:44:21,15.08856296,0.0001762,53.2178,161.1797,119.3336,240.7833,0.0013752,0.00021676,0.0,0 STARLINK-4766,1 53840U 22114Y   23071.61413579  .00021676  00000-0  13752-2 0  9991,2 53840  53.2178 161.1797 0001762 119.3336 240.7833 15.08856296 27413,6917.831,95.437,540.915,538.477,0.0
53840.0,STARLINK-4766,PAYLOAD,2023-03-13 05:02:49,15.08837488,0.0001506,53.2173,158.5034,111.8034,248.3118,0.00040695,6.194e-05,0.0,0 STARLINK-4766,1 53840U 22114Y   23072.21030077  .00006194  00000-0  40695-3 0  9991,2 53840  53.2173 158.5034 0001506 111.8034 248.3118 15.08837488 27502,6917.888,95.438,540.795,538.711,0.0
53840.0,STARLINK-4766,PAYLOAD,2023-03-13 06:38:13,15.08835507,0.000143,53.2177,158.2061,116.3535,243.7604,0.00014858,2.077e-05,0.0,0 STARLINK-4766,1 53840U 22114Y   23072.27654069  .00002077  00000-0  14858-3 0  9998,2 53840  53.2177 158.2061 0001430 116.3535 243.7604 15.08835507 28055,6917.894,95.438,540.748,538.77,0.0
53840.0,STARLINK-4766,PAYLOAD,2023-03-14 04:53:37,15.08843865,0.0001657,53.2165,154.0422,96.7876,263.3305,0.00044189,6.752e-05,0.0,0 STARLINK-4766,1 53840U 22114Y   23073.20390299  .00006752  00000-0  44189-3 0  9998,2 53840  53.2165 154.0422 0001657  96.7876 263.3305 15.08843865 27654,6917.869,95.437,540.88,538.587,0.0
53840.0,STARLINK-4766,PAYLOAD,2023-03-14 14:25:55,15.088688,0.0001745,53.2175,152.2576,104.3111,255.8075,0.0010507,0.00016487,0.0,0 STARLINK-4766,1 53840U 22114Y   23073.60133565  .00016487  00000-0  10507-2 0  9995,2 53840  53.2175 152.2576 0001745 104.3111 255.8075 15.08868800 28254,6917.792,95.436,540.865,538.45,0.0
53840.0,STARLINK-4766,PAYLOAD,2023-03-15 04:44:23,15.08868513,0.0001798,53.2162,149.5838,83.3568,276.7629,0.00065854,0.00010216,0.0,0 STARLINK-4766,1 53840U 22114Y   23074.19749019  .00010216  00000-0  65854-3 0  9997,2 53840  53.2162 149.5838 0001798  83.3568 276.7629 15.08868513 27808,6917.793,95.436,540.902,538.414,0.0
53840.0,STARLINK-4766,PAYLOAD,2023-03-15 11:05:54,15.0891196,0.0001481,53.2166,148.3909,110.3131,249.802,0.0020416,0.00032418,0.0,0 STARLINK-4766,1 53840U 22114Y   23074.46243334  .00032418  00000-0  20416-2 0  9998,2 53840  53.2166 148.3909 0001481 110.3131 249.8020 15.08911960 27849,6917.66,95.433,540.55,538.501,0.0
53840.0,STARLINK-4766,PAYLOAD,2023-03-16 04:35:09,15.0881963,0.0001935,53.2175,145.1208,104.6267,255.494,0.00052256,8.034e-05,0.0,0 STARLINK-4766,1 53840U 22114Y   23075.19108591  .00008034  00000-0  52256-3 0  9999,2 53840  53.2175 145.1208 0001935 104.6267 255.4940 15.08819630 27953,6917.943,95.439,541.146,538.469,0.0
53840.0,STARLINK-4766,PAYLOAD,2023-03-16 14:07:29,15.08818234,0.0001598,53.2172,143.3369,94.9802,265.1372,0.0016899,0.00026693,0.0,0 STARLINK-4766,1 53840U 22114Y   23075.58853371  .00026693  00000-0  16899-2 0  9998,2 53840  53.2172 143.3369 0001598  94.9802 265.1372 15.08818234 28552,6917.947,95.439,540.917,538.706,0.0
53840.0,STARLINK-4766,PAYLOAD,2023-03-17 04:25:58,15.0881926,0.0001968,53.2169,140.659,118.0812,242.0379,0.00060749,9.388e-05,0.0,0 STARLINK-4766,1 53840U 22114Y   23076.18470304  .00009388  00000-0  60749-3 0  9992,2 53840  53.2169 140.6590 0001968 118.0812 242.0379 15.08819260 28106,6917.944,95.439,541.17,538.447,0.0
53840.0,STARLINK-4766,PAYLOAD,2023-03-17 10:47:31,15.08822916,0.0001425,53.2154,139.4701,94.1148,266.0007,0.00043422,6.626e-05,0.0,0 STARLINK-4766,1 53840U 22114Y   23076.44966630  .00006626  00000-0  43422-3 0  9994,2 53840  53.2154 139.4701 0001425  94.1148 266.0007 15.08822916 28683,6917.933,95.439,540.783,538.812,0.0
53840.0,STARLINK-4766,PAYLOAD,2023-03-18 13:49:03,15.08873895,0.0001335,53.2169,134.4177,91.6774,268.4371,0.0012552,0.00019763,0.0,0 STARLINK-4766,1 53840U 22114Y   23077.57573800  .00019763  00000-0  12552-2 0  9997,2 53840  53.2169 134.4177 0001335  91.6774 268.4371 15.08873895 28310,6917.777,95.435,540.565,538.718,0.0
53840.0,STARLINK-4766,PAYLOAD,2023-03-18 20:10:36,15.08853486,0.0001756,53.216,133.2253,89.6238,270.4955,0.0002245,3.288e-05,0.0,0 STARLINK-4766,1 53840U 22114Y   23077.84070005  .00003288  00000-0  22450-3 0  9990,2 53840  53.2160 133.2253 0001756  89.6238 270.4955 15.08853486 28351,6917.839,95.437,540.919,538.489,0.0
53840.0,STARLINK-4766,PAYLOAD,2023-03-19 10:29:04,15.08856216,0.0001327,53.2179,130.5534,102.9677,257.1463,0.00040528,6.171e-05,0.0,0 STARLINK-4766,1 53840U 22114Y   23078.43685503  .00006171  00000-0  40528-3 0  9991,2 53840  53.2179 130.5534 0001327 102.9677 257.1463 15.08856216 28982,6917.831,95.437,540.614,538.778,0.0
53840.0,STARLINK-4766,PAYLOAD,2023-03-19 20:01:23,15.088534,0.000113,53.2169,128.7695,102.7851,257.3268,0.00055977,8.635e-05,0.0,0 STARLINK-4766,1 53840U 22114Y   23078.83429407  .00008635  00000-0  55977-3 0  9995,2 53840  53.2169 128.7695 0001130 102.7851 257.3268 15.08853400 28507,6917.839,95.437,540.486,538.923,0.0
53840.0,STARLINK-4766,PAYLOAD,2023-03-20 07:09:05,15.08840476,0.0001548,53.2185,126.6879,101.1507,258.9659,-3.6294e-05,-8.66e-06,0.0,0 STARLINK-4766,1 53840U 22114Y   23079.29797675 -.00000866  00000-0 -36294-4 0  9993,2 53840  53.2185 126.6879 0001548 101.1507 258.9659 15.08840476 28577,6917.879,95.438,540.815,538.673,0.0
53840.0,STARLINK-4766,PAYLOAD,2023-03-20 10:19:51,15.08840601,0.0001362,53.2174,126.0929,102.2484,257.8661,-8.8079e-05,-1.689e-05,0.0,0 STARLINK-4766,1 53840U 22114Y   23079.43045681 -.00001689  00000-0 -88079-4 0  9994,2 53840  53.2174 126.0929 0001362 102.2484 257.8661 15.08840601 29139,6917.879,95.438,540.686,538.801,0.0
53840.0,STARLINK-4766,PAYLOAD,2023-03-20 19:52:10,15.08842932,0.0001268,53.217,124.3079,85.8725,274.2412,2.2179e-05,6.5e-07,0.0,0 STARLINK-4766,1 53840U 22114Y   23079.82789637  .00000065  00000-0  22179-4 0  9997,2 53840  53.2170 124.3079 0001268  85.8725 274.2412 15.08842932 29193,6917.871,95.437,540.614,538.859,0.0
53840.0,STARLINK-4766,PAYLOAD,2023-03-21 08:35:15,15.08842346,0.0001304,53.2182,121.9297,85.6176,274.4965,7.2139e-05,8.6e-06,0.0,0 STARLINK-4766,1 53840U 22114Y   23080.35781752  .00000860  00000-0  72139-4 0  9991,2 53840  53.2182 121.9297 0001304  85.6176 274.4965 15.08842346 28733,6917.873,95.437,540.64,538.836,0.0
53840.0,STARLINK-4766,PAYLOAD,2023-03-21 10:10:38,15.08844838,0.0001307,53.2176,121.6316,87.7504,272.3638,8.0834e-05,9.99e-06,0.0,0 STARLINK-4766,1 53840U 22114Y   23080.42405679  .00000999  00000-0  80834-4 0  9994,2 53840  53.2176 121.6316 0001307  87.7504 272.3638 15.08844838 29289,6917.866,95.437,540.635,538.826,0.0
53840.0,STARLINK-4766,PAYLOAD,2023-03-21 19:42:57,15.08841867,0.0001357,53.2165,119.8457,74.4179,285.6963,7.0812e-05,8.39e-06,0.0,0 STARLINK-4766,1 53840U 22114Y   23080.82149886  .00000839  00000-0  70812-4 0  9991,2 53840  53.2165 119.8457 0001357  74.4179 285.6963 15.08841867 29342,6917.875,95.437,540.678,538.801,0.0
53840.0,STARLINK-4766,PAYLOAD,2023-03-22 06:50:40,15.08833669,0.0001488,53.2165,117.7648,75.0252,285.0905,5.8987e-05,6.51e-06,0.0,0 STARLINK-4766,1 53840U 22114Y   23081.28518530  .00000651  00000-0  58987-4 0  9999,2 53840  53.2165 117.7648 0001488  75.0252 285.0905 15.08833669 28873,6917.9,95.438,540.794,538.735,0.0
53840.0,STARLINK-4766,PAYLOAD,2023-03-22 19:33:44,15.08842373,0.0001577,53.2186,115.3866,73.9888,286.1278,7.6921e-05,9.36e-06,0.0,0 STARLINK-4766,1 53840U 22114Y   23081.81510222  .00000936  00000-0  76921-4 0  9992,2 53840  53.2186 115.3866 0001577  73.9888 286.1278 15.08842373 29499,6917.873,95.437,540.829,538.647,0.0
53840.0,STARLINK-4766,PAYLOAD,2023-03-23 01:55:17,15.08843752,0.0001624,53.2183,114.1967,72.4687,287.6483,0.00017705,2.531e-05,0.0,0 STARLINK-4766,1 53840U 22114Y   23082.08006209  .00002531  00000-0  17705-3 0  9994,2 53840  53.2183 114.1967 0001624  72.4687 287.6483 15.08843752 28999,6917.869,95.437,540.857,538.61,0.0
53840.0,STARLINK-4766,PAYLOAD,2023-03-23 08:16:49,15.08857692,0.0001481,53.2178,113.0074,68.7763,291.3388,-4.3543e-05,-9.81e-06,0.0,0 STARLINK-4766,1 53840U 22114Y   23082.34501346 -.00000981  00000-0 -43543-4 0  9994,2 53840  53.2178 113.0074 0001481  68.7763 291.3388 15.08857692 29034,6917.826,95.436,540.716,538.667,0.0
53840.0,STARLINK-4766,PAYLOAD,2023-03-23 19:24:31,15.08850593,0.0001303,53.2169,110.926,74.7407,285.3729,0.00020071,2.909e-05,0.0,0 STARLINK-4766,1 53840U 22114Y   23082.80869634  .00002909  00000-0  20071-3 0  9992,2 53840  53.2169 110.9260 0001303  74.7407 285.3729 15.08850593 29105,6917.848,95.437,540.614,538.812,0.0
53840.0,STARLINK-4766,PAYLOAD,2023-03-24 08:07:36,15.08860552,0.0001355,53.2168,108.5481,71.455,288.6589,0.00042973,6.562e-05,0.0,0 STARLINK-4766,1 53840U 22114Y   23083.33861199  .00006562  00000-0  42973-3 0  9993,2 53840  53.2168 108.5481 0001355  71.4550 288.6589 15.08860552 29726,6917.818,95.436,540.62,538.745,0.0
